norad_id,name,regime,epoch,line1,line2,inclination,eccentricity,mean_motion,raan,arg_pericenter,mean_anomaly
28082,CHINASAT 20,EGO,21202.36073720,1 28082U 03052A   21202.36073720 -.00000260  00000-0  00000-0 0    18\,2 28082   6.5349  63.9141 0007394  38.7315 299.4537  0.99112954 64620,6.5349,0.0007394,0.99112954,63.9141,38.7315,299.4537
28082,CHINASAT 20,EGO,21203.00609659,1 28082U 03052A   21203.00609659 -.00000263  00000-0  00000+0 0  2122\,2 28082   6.5364  63.9105 0007402  39.1293 169.3317  0.99112818 64649,6.5364,0.0007402,0.99112818,63.9105,39.1293,169.3317
28082,CHINASAT 20,EGO,21203.43640833,1 28082U 03052A   21203.43640833 -.00000264  00000-0  00000-0 0    16\,2 28082   6.5373  63.9081 0007395  39.4205 322.5835  0.99112769 64642,6.5373,0.0007395,0.99112769,63.9081,39.4205,322.5835
28082,CHINASAT 20,EGO,21204.36876963,1 28082U 03052A   21204.36876963 -.00000264  00000-0  00000-0 0    14\,2 28082   6.5394  63.9028 0007377  40.0220 294.6648  0.99112578 64640,6.5394,0.0007377,0.99112578,63.9028,40.022,294.6648
28082,CHINASAT 20,EGO,21205.01423014,1 28082U 03052A   21205.01423014 -.00000263  00000-0  00000+0 0  2135\,2 28082   6.5409  63.8991 0007355  40.4348 164.5630  0.99112431 64662,6.5409,0.0007355,0.99112431,63.8991,40.4348,164.563
28082,CHINASAT 20,EGO,21205.44451171,1 28082U 03052A   21205.44451171 -.00000261  00000-0  00000-0 0    11\,2 28082   6.5418  63.8967 0007333  40.7212 317.8084  0.99112360 64650,6.5418,0.0007333,0.9911236,63.8967,40.7212,317.8084
28082,CHINASAT 20,EGO,21206.44841396,1 28082U 03052A   21206.44841396 -.00000253  00000-0  00000-0 0    15\,2 28082   6.5440  63.8910 0007281  41.3517 315.3862  0.99112134 64667,6.544,0.0007281,0.99112134,63.891,41.3517,315.3862
28082,CHINASAT 20,EGO,21206.87881677,1 28082U 03052A   21206.87881677 -.00000248  00000-0  00000-0 0    12\,2 28082   6.5449  63.8885 0007247  41.6217 108.6903  0.99112036 64670,6.5449,0.0007247,0.99112036,63.8885,41.6217,108.6903
28082,CHINASAT 20,EGO,21207.45244997,1 28082U 03052A   21207.45244997 -.00000241  00000-0  00000-0 0    18\,2 28082   6.5461  63.8853 0007218  41.9316 313.0616  0.99111899 64679,6.5461,0.0007218,0.99111899,63.8853,41.9316,313.0616
28082,CHINASAT 20,EGO,21208.45645284,1 28082U 03052A   21208.45645284 -.00000226  00000-0  00000-0 0    16\,2 28082   6.5482  63.8794 0007146  42.4985 310.7373  0.99111653 64687,6.5482,0.0007146,0.99111653,63.8794,42.4985,310.7373
28082,CHINASAT 20,EGO,21209.03019321,1 28082U 03052A   21209.03019321 -.00000217  00000-0  00000+0 0  2154\,2 28082   6.5494  63.8759 0007093  42.7888 155.1652  0.99111512 64705,6.5494,0.0007093,0.99111512,63.8759,42.7888,155.1652
28082,CHINASAT 20,EGO,21209.46050421,1 28082U 03052A   21209.46050421 -.00000208  00000-0  00000-0 0    11\,2 28082   6.5502  63.8732 0007070  43.0039 308.4912  0.99111400 64699,6.5502,0.000707,0.991114,63.8732,43.0039,308.4912
28082,CHINASAT 20,EGO,21210.45632753,1 28082U 03052A   21210.45632753 -.00000189  00000-0  00000-0 0    14\,2 28082   6.5521  63.8668 0006992  43.4380 303.3798  0.99111141 64703,6.5521,0.0006992,0.99111141,63.8668,43.438,303.3798
28082,CHINASAT 20,EGO,21211.03830123,1 28082U 03052A   21211.03830123 -.00000177  00000-0  00000+0 0  2164\,2 28082   6.5533  63.8629 0006935  43.6617 150.8113  0.99110999 64723,6.5533,0.0006935,0.99110999,63.8629,43.6617,150.8113
28082,CHINASAT 20,EGO,21211.47003230,1 28082U 03052A   21211.47003230 -.00000167  00000-0  00000-0 0    15\,2 28082   6.5541  63.8600 0006913  43.8159 304.7043  0.99110868 64716,6.5541,0.0006913,0.99110868,63.86,43.8159,304.7043
28082,CHINASAT 20,EGO,21212.47259755,1 28082U 03052A   21212.47259755 -.00000145  00000-0  00000-0 0    17\,2 28082   6.5560  63.8531 0006838  44.1015 302.1454  0.99110589 64720,6.556,0.0006838,0.99110589,63.8531,44.1015,302.1454
28082,CHINASAT 20,EGO,21213.35434174,1 28082U 03052A   21213.35434174 -.00000125  00000-0  00000-0 0    13\,2 28082   6.5576  63.8471 0006775  44.2734 256.5889  0.99110335 64733,6.5576,0.0006775,0.99110335,63.8471,44.2734,256.5889
28082,CHINASAT 20,EGO,21214.48071965,1 28082U 03052A   21214.48071965 -.00000100  00000-0  00000-0 0    16\,2 28082   6.5597  63.8390 0006714  44.4432 298.3216  0.99110008 64742,6.5597,0.0006714,0.99110008,63.839,44.4432,298.3216
28082,CHINASAT 20,EGO,21215.37046470,1 28082U 03052A   21215.37046470 -.00000080  00000-0  00000+0 0  2184\,2 28082   6.5614  63.8330 0006673  44.4605 255.7726  0.99109744 64762,6.5614,0.0006673,0.99109744,63.833,44.4605,255.7726
28082,CHINASAT 20,EGO,21215.48470642,1 28082U 03052A   21215.48470642 -.00000077  00000-0  00000-0 0    15\,2 28082   6.5616  63.8320 0006670  44.4760 296.5197  0.99109713 64752,6.5616,0.000667,0.99109713,63.832,44.476,296.5197
28082,CHINASAT 20,EGO,21216.13014236,1 28082U 03052A   21216.13014236 -.00000063  00000-0  00000-0 0    16\,2 28082   6.5628  63.8276 0006648  44.5529 166.7391  0.99109539 64765,6.5628,0.0006648,0.99109539,63.8276,44.5529,166.7391
28082,CHINASAT 20,EGO,21216.56044539,1 28082U 03052A   21216.56044539 -.00000054  00000-0  00000-0 0    12\,2 28082   6.5636  63.8246 0006636  44.5175 320.3097  0.99109403 64777,6.5636,0.0006636,0.99109403,63.8246,44.5175,320.3097
28082,CHINASAT 20,EGO,21217.47099794,1 28082U 03052A   21217.47099794 -.00000035  00000-0  00000-0 0    15\,2 28082   6.5653  63.8184 0006618  44.4443 285.2736  0.99109146 64777,6.5653,0.0006618,0.99109146,63.8184,44.4443,285.2736
28082,CHINASAT 20,EGO,21217.56445142,1 28082U 03052A   21217.56445142 -.00000034  00000-0  00000-0 0    16\,2 28082   6.5655  63.8176 0006619  44.4200 318.6427  0.99109123 64786,6.5655,0.0006619,0.99109123,63.8176,44.42,318.6427
28082,CHINASAT 20,EGO,21218.34228277,1 28082U 03052A   21218.34228277 -.00000018  00000-0  00000-0 0    13\,2 28082   6.5670  63.8125 0006617  44.3697 236.2271  0.99108926 64786,6.567,0.0006617,0.99108926,63.8125,44.3697,236.2271
28082,CHINASAT 20,EGO,21218.56853046,1 28082U 03052A   21218.56853046 -.00000014  00000-0  00000-0 0    11\,2 28082   6.5674  63.8108 0006618  44.3168 317.0065  0.99108863 64795,6.5674,0.0006618,0.99108863,63.8108,44.3168,317.0065
28082,CHINASAT 20,EGO,21219.25676542,1 28082U 03052A   21219.25676542 -.00000001  00000-0  00000-0 0    18\,2 28082   6.5688  63.8061 0006625  44.3201 202.5685  0.99108719 64790,6.5688,0.0006625,0.99108719,63.8061,44.3201,202.5685
28082,CHINASAT 20,EGO,21219.57252435,1 28082U 03052A   21219.57252435  .00000004  00000-0  00000+0 0  2208\,2 28082   6.5694  63.8038 0006630  44.2085 315.3442  0.99108632 64817,6.5694,0.000663,0.99108632,63.8038,44.2085,315.3442
28082,CHINASAT 20,EGO,21219.64423229,1 28082U 03052A   21219.64423229  .00000005  00000-0  00000-0 0    16\,2 28082   6.5695  63.8033 0006632  44.2027 340.9357  0.99108617 64802,6.5695,0.0006632,0.99108617,63.8033,44.2027,340.9357
28082,CHINASAT 20,EGO,21220.50494917,1 28082U 03052A   21220.50494917  .00000020  00000-0  00000-0 0    12\,2 28082   6.5712  63.7973 0006657  44.1073 288.1380  0.99108457 64802,6.5712,0.0006657,0.99108457,63.7973,44.1073,288.138
28082,CHINASAT 20,EGO,21220.57656986,1 28082U 03052A   21220.57656986  .00000021  00000-0  00000-0 0    16\,2 28082   6.5713  63.7967 0006659  44.0845 313.7154  0.99108440 64800,6.5713,0.0006659,0.9910844,63.7967,44.0845,313.7154
28082,CHINASAT 20,EGO,21221.50890034,1 28082U 03052A   21221.50890034  .00000035  00000-0  00000-0 0    19\,2 28082   6.5732  63.7902 0006694  44.0847 286.3738  0.99108313 64814,6.5732,0.0006694,0.99108313,63.7902,44.0847,286.3738
28082,CHINASAT 20,EGO,21222.01095037,1 28082U 03052A   21222.01095037  .00000041  00000-0  00000+0 0  2216\,2 28082   6.5742  63.7867 0006714  44.0893 105.5021  0.99108253 64831,6.5742,0.0006714,0.99108253,63.7867,44.0893,105.5021
28082,CHINASAT 20,EGO,21222.53112844,1 28082U 03052A   21222.53112844  .00000047  00000-0  00000-0 0    12\,2 28082   6.5753  63.7831 0006740  44.0559 291.1364  0.99108226 64823,6.5753,0.000674,0.99108226,63.7831,44.0559,291.1364
28082,CHINASAT 20,EGO,21222.63339792,1 28082U 03052A   21222.63339792  .00000049  00000-0  00000-0 0    18\,2 28082   6.5756  63.7825 0006745  44.0438 327.6384  0.99108211 64832,6.5756,0.0006745,0.99108211,63.7825,44.0438,327.6384
28082,CHINASAT 20,EGO,21223.54833233,1 28082U 03052A   21223.54833233  .00000058  00000-0  00000-0 0    18\,2 28082   6.5775  63.7760 0006790  44.1087 294.0246  0.99108207 64831,6.5775,0.000679,0.99108207,63.776,44.1087,294.0246
28082,CHINASAT 20,EGO,21223.66042385,1 28082U 03052A   21223.66042385  .00000058  00000-0  00000-0 0    11\,2 28082   6.5777  63.7752 0006796  44.0884 334.0395  0.99108199 64845,6.5777,0.0006796,0.99108199,63.7752,44.0884,334.0395
28082,CHINASAT 20,EGO,21224.16242872,1 28082U 03052A   21224.16242872  .00000062  00000-0  00000+0 0  2229\,2 28082   6.5788  63.7716 0006824  44.1571 153.0877  0.99108210 64852,6.5788,0.0006824,0.9910821,63.7716,44.1571,153.0877
28082,CHINASAT 20,EGO,21224.56164244,1 28082U 03052A   21224.56164244  .00000064  00000-0  00000-0 0    17\,2 28082   6.5797  63.7689 0006844  44.1812 295.5042  0.99108262 64843,6.5797,0.0006844,0.99108262,63.7689,44.1812,295.5042
28082,CHINASAT 20,EGO,21225.47690487,1 28082U 03052A   21225.47690487  .00000067  00000-0  00000-0 0    14\,2 28082   6.5817  63.7625 0006891  44.3375 261.9163  0.99108374 64850,6.5817,0.0006891,0.99108374,63.7625,44.3375,261.9163
28082,CHINASAT 20,EGO,21225.83928267,1 28082U 03052A   21225.83928267  .00000068  00000-0  00000-0 0    15\,2 28082   6.5825  63.7602 0006908  44.4257  31.1254  0.99108417 64860,6.5825,0.0006908,0.99108417,63.7602,44.4257,31.1254
28082,CHINASAT 20,EGO,21226.44314013,1 28082U 03052A   21226.44314013  .00000067  00000-0  00000+0 0  2246\,2 28082   6.5839  63.7560 0006936  44.6290 246.3808  0.99108553 64875,6.5839,0.0006936,0.99108553,63.756,44.629,246.3808
